{
  "type": "FeatureCollection",
  "features": [
    {
      "type": "Feature",
      "properties": {
        "norad_id": 58655,
        "name": "BEIDOU-3 M26 (C48)",
        "group": "beidou",
        "lat": -27.746060645792518,
        "lon": -90.56284264445267,
        "alt_km": 21523.506183507372,
        "timestamp": "2025-12-20T14:38:02.235610+00:00",
        "meta_object_name": "BEIDOU-3 M26 (C48)",
        "meta_object_id": "2023-207B",
        "meta_epoch": "2025-12-19T05:11:10.015296",
        "meta_mean_motion": 1.86231346,
        "meta_eccentricity": 0.0004042,
        "meta_inclination": 55.592,
        "meta_ra_of_asc_node": 68.3684,
        "meta_arg_of_pericenter": 258.4158,
        "meta_mean_anomaly": 101.5732,
        "meta_ephemeris_type": 0,
        "meta_classification_type": "U",
        "meta_norad_cat_id": 58655,
        "meta_element_set_no": 999,
        "meta_rev_at_epoch": 1347,
        "meta_bstar": 0,
        "meta_mean_motion_dot": -5.7e-07,
        "meta_mean_motion_ddot": 0,
        "tle_line1": "1 58655U 23207B   25353.21608814 -.00000057  00000+0  00000+0 0  9992",
        "tle_line2": "2 58655  55.5920  68.3684 0004042 258.4158 101.5732  1.86231346 13473"
      },
      "geometry": {
        "type": "Point",
        "coordinates": [
          -90.56284264445267,
          -27.746060645792518
        ]
      }
    },
    {
      "type": "Feature",
      "properties": {
        "norad_id": 61186,
        "name": "BEIDOU-3 M25 (C47)",
        "group": "beidou",
        "lat": -23.064112009749216,
        "lon": -69.16020223221898,
        "alt_km": 21518.23650246468,
        "timestamp": "2025-12-20T14:38:02.235621+00:00",
        "meta_object_name": "BEIDOU-3 M25 (C47)",
        "meta_object_id": "2024-168B",
        "meta_epoch": "2025-12-20T04:50:33.841248",
        "meta_mean_motion": 1.86230266,
        "meta_eccentricity": 0.00054523,
        "meta_inclination": 54.6355,
        "meta_ra_of_asc_node": 308.462,
        "meta_arg_of_pericenter": 299.4821,
        "meta_mean_anomaly": 118.2458,
        "meta_ephemeris_type": 0,
        "meta_classification_type": "U",
        "meta_norad_cat_id": 61186,
        "meta_element_set_no": 999,
        "meta_rev_at_epoch": 845,
        "meta_bstar": 0,
        "meta_mean_motion_dot": -7.1e-07,
        "meta_mean_motion_ddot": 0,
        "tle_line1": "1 61186U 24168B   25354.20178057 -.00000071  00000+0  00000+0 0  9999",
        "tle_line2": "2 61186  54.6355 308.4620 0005452 299.4821 118.2458  1.86230266  8456"
      },
      "geometry": {
        "type": "Point",
        "coordinates": [
          -69.16020223221898,
          -23.064112009749216
        ]
      }
    },
    {
      "type": "Feature",
      "properties": {
        "norad_id": 61187,
        "name": "BEIDOU-3 M27 (C49)",
        "group": "beidou",
        "lat": 51.52809846763434,
        "lon": 65.15100771105809,
        "alt_km": 21526.236611397682,
        "timestamp": "2025-12-20T14:38:02.235633+00:00",
        "meta_object_name": "BEIDOU-3 M27 (C49)",
        "meta_object_id": "2024-168C",
        "meta_epoch": "2025-12-20T01:43:20.217792",
        "meta_mean_motion": 1.8623042,
        "meta_eccentricity": 0.00025185,
        "meta_inclination": 54.631,
        "meta_ra_of_asc_node": 308.4501,
        "meta_arg_of_pericenter": 339.7234,
        "meta_mean_anomaly": 125.7801,
        "meta_ephemeris_type": 0,
        "meta_classification_type": "U",
        "meta_norad_cat_id": 61187,
        "meta_element_set_no": 999,
        "meta_rev_at_epoch": 592,
        "meta_bstar": 0,
        "meta_mean_motion_dot": -7.2e-07,
        "meta_mean_motion_ddot": 0,
        "tle_line1": "1 61187U 24168C   25354.07176178 -.00000072  00000+0  00000+0 0  9998",
        "tle_line2": "2 61187  54.6310 308.4501 0002518 339.7234 125.7801  1.86230420  5928"
      },
      "geometry": {
        "type": "Point",
        "coordinates": [
          65.15100771105809,
          51.52809846763434
        ]
      }
    }
  ]
}